[{"OBJECT_NAME":"STARLINK-5545","OBJECT_ID":"2023-064AE","EPOCH":"2025-07-30T13:17:10.105152","MEAN_MOTION":14.98330099,"ECCENTRICITY":0.0003272,"INCLINATION":70.0011,"RA_OF_ASC_NODE":324.6137,"ARG_OF_PERICENTER":269.8266,"MEAN_ANOMALY":90.2518,"EPHEMERIS_TYPE":0,"CLASSIFICATION_TYPE":"U","NORAD_CAT_ID":56476,"ELEMENT_SET_NO":999,"REV_AT_EPOCH":12282,"BSTAR":5.8606e-6,"MEAN_MOTION_DOT":-2.3e-7,"MEAN_MOTION_DDOT":0},{"OBJECT_NAME":"STARLINK-5534","OBJECT_ID":"2023-064AF","EPOCH":"2025-07-30T12:41:20.649408","MEAN_MOTION":14.98326288,"ECCENTRICITY":0.0003489,"INCLINATION":70.0006,"RA_OF_ASC_NODE":324.5274,"ARG_OF_PERICENTER":270.9625,"MEAN_ANOMALY":89.1134,"EPHEMERIS_TYPE":0,"CLASSIFICATION_TYPE":"U","NORAD_CAT_ID":56477,"ELEMENT_SET_NO":999,"REV_AT_EPOCH":12282,"BSTAR":0.00011313,"MEAN_MOTION_DOT":1.257e-5,"MEAN_MOTION_DDOT":0},{"OBJECT_NAME":"STARLINK-6041","OBJECT_ID":"2023-064AG","EPOCH":"2025-07-30T12:59:08.146464","MEAN_MOTION":14.98327397,"ECCENTRICITY":0.0003351,"INCLINATION":70.0006,"RA_OF_ASC_NODE":324.5712,"ARG_OF_PERICENTER":268.169,"MEAN_ANOMALY":91.9085,"EPHEMERIS_TYPE":0,"CLASSIFICATION_TYPE":"U","NORAD_CAT_ID":56478,"ELEMENT_SET_NO":999,"REV_AT_EPOCH":12282,"BSTAR":3.0133e-5,"MEAN_MOTION_DOT":2.66e-6,"MEAN_MOTION_DDOT":0},{"OBJECT_NAME":"STARLINK-6044","OBJECT_ID":"2023-064AH","EPOCH":"2025-07-30T13:59:12.369120","MEAN_MOTION":14.98329436,"ECCENTRICITY":0.0002955,"INCLINATION":70.0007,"RA_OF_ASC_NODE":324.3139,"ARG_OF_PERICENTER":269.732,"MEAN_ANOMALY":90.3501,"EPHEMERIS_TYPE":0,"CLASSIFICATION_TYPE":"U","NORAD_CAT_ID":56479,"ELEMENT_SET_NO":999,"REV_AT_EPOCH":12283,"BSTAR":4.9531e-5,"MEAN_MOTION_DOT":4.98e-6,"MEAN_MOTION_DDOT":0},{"OBJECT_NAME":"STARLINK-6214","OBJECT_ID":"2023-064AJ","EPOCH":"2025-07-30T12:42:38.151936","MEAN_MOTION":15.1382099,"ECCENTRICITY":0.0001193,"INCLINATION":69.9971,"RA_OF_ASC_NODE":309.4139,"ARG_OF_PERICENTER":239.3486,"MEAN_ANOMALY":120.7564,"EPHEMERIS_TYPE":0,"CLASSIFICATION_TYPE":"U","NORAD_CAT_ID":56480,"ELEMENT_SET_NO":999,"REV_AT_EPOCH":12320,"BSTAR":0.00039853,"MEAN_MOTION_DOT":7.114e-5,"MEAN_MOTION_DDOT":0},{"OBJECT_NAME":"STARLINK-6222","OBJECT_ID":"2023-064AK","EPOCH":"2025-07-30T14:11:13.621632","MEAN_MOTION":14.98330456,"ECCENTRICITY":0.000328,"INCLINATION":70.0005,"RA_OF_ASC_NODE":324.3434,"ARG_OF_PERICENTER":270.3958,"MEAN_ANOMALY":89.6826,"EPHEMERIS_TYPE":0,"CLASSIFICATION_TYPE":"U","NORAD_CAT_ID":56481,"ELEMENT_SET_NO":999,"REV_AT_EPOCH":12283,"BSTAR":6.9943e-5,"MEAN_MOTION_DOT":7.42e-6,"MEAN_MOTION_DDOT":0},{"OBJECT_NAME":"STARLINK-6220","OBJECT_ID":"2023-064AL","EPOCH":"2025-07-30T12:53:07.384992","MEAN_MOTION":14.98329309,"ECCENTRICITY":0.0003296,"INCLINATION":70.0007,"RA_OF_ASC_NODE":324.5556,"ARG_OF_PERICENTER":271.0434,"MEAN_ANOMALY":89.0348,"EPHEMERIS_TYPE":0,"CLASSIFICATION_TYPE":"U","NORAD_CAT_ID":56482,"ELEMENT_SET_NO":999,"REV_AT_EPOCH":12282,"BSTAR":7.1442e-5,"MEAN_MOTION_DOT":7.59e-6,"MEAN_MOTION_DDOT":0},{"OBJECT_NAME":"STARLINK-5868","OBJECT_ID":"2023-064AM","EPOCH":"2025-07-30T12:47:06.792000","MEAN_MOTION":14.98328104,"ECCENTRICITY":0.0003379,"INCLINATION":70.0006,"RA_OF_ASC_NODE":324.5377,"ARG_OF_PERICENTER":268.3533,"MEAN_ANOMALY":91.7239,"EPHEMERIS_TYPE":0,"CLASSIFICATION_TYPE":"U","NORAD_CAT_ID":56483,"ELEMENT_SET_NO":999,"REV_AT_EPOCH":12282,"BSTAR":2.6805e-5,"MEAN_MOTION_DOT":2.27e-6,"MEAN_MOTION_DDOT":0},{"OBJECT_NAME":"STARLINK-6221","OBJECT_ID":"2023-064AN","EPOCH":"2025-07-29T17:27:29.246976","MEAN_MOTION":14.98331771,"ECCENTRICITY":0.0003046,"INCLINATION":70.0009,"RA_OF_ASC_NODE":326.5466,"ARG_OF_PERICENTER":269.2561,"MEAN_ANOMALY":90.8249,"EPHEMERIS_TYPE":0,"CLASSIFICATION_TYPE":"U","NORAD_CAT_ID":56484,"ELEMENT_SET_NO":999,"REV_AT_EPOCH":12234,"BSTAR":4.6146e-5,"MEAN_MOTION_DOT":4.58e-6,"MEAN_MOTION_DDOT":0},{"OBJECT_NAME":"STARLINK-6210","OBJECT_ID":"2023-064AP","EPOCH":"2025-07-30T13:53:11.709600","MEAN_MOTION":14.98330491,"ECCENTRICITY":0.000277,"INCLINATION":70.0012,"RA_OF_ASC_NODE":324.2968,"ARG_OF_PERICENTER":268.8307,"MEAN_ANOMALY":91.2535,"EPHEMERIS_TYPE":0,"CLASSIFICATION_TYPE":"U","NORAD_CAT_ID":56485,"ELEMENT_SET_NO":999,"REV_AT_EPOCH":12283,"BSTAR":3.4574e-5,"MEAN_MOTION_DOT":3.2e-6,"MEAN_MOTION_DDOT":0},{"OBJECT_NAME":"STARLINK-6201","OBJECT_ID":"2023-064AQ","EPOCH":"2025-07-30T14:05:13.006176","MEAN_MOTION":14.98327505,"ECCENTRICITY":0.0003313,"INCLINATION":70.0007,"RA_OF_ASC_NODE":324.3286,"ARG_OF_PERICENTER":268.6939,"MEAN_ANOMALY":91.384,"EPHEMERIS_TYPE":0,"CLASSIFICATION_TYPE":"U","NORAD_CAT_ID":56486,"ELEMENT_SET_NO":999,"REV_AT_EPOCH":12283,"BSTAR":4.1821e-5,"MEAN_MOTION_DOT":4.06e-6,"MEAN_MOTION_DDOT":0},{"OBJECT_NAME":"STARLINK-6196","OBJECT_ID":"2023-064AR","EPOCH":"2025-07-30T13:28:49.834560","MEAN_MOTION":14.9832991,"ECCENTRICITY":0.0003264,"INCLINATION":70.001,"RA_OF_ASC_NODE":304.3738,"ARG_OF_PERICENTER":270.2678,"MEAN_ANOMALY":89.8107,"EPHEMERIS_TYPE":0,"CLASSIFICATION_TYPE":"U","NORAD_CAT_ID":56487,"ELEMENT_SET_NO":999,"REV_AT_EPOCH":12332,"BSTAR":7.6754e-5,"MEAN_MOTION_DOT":8.23e-6,"MEAN_MOTION_DDOT":0},{"OBJECT_NAME":"STARLINK-6204","OBJECT_ID":"2023-064AS","EPOCH":"2025-07-30T12:52:48.549792","MEAN_MOTION":14.98342442,"ECCENTRICITY":0.0003018,"INCLINATION":69.9999,"RA_OF_ASC_NODE":304.6838,"ARG_OF_PERICENTER":271.2681,"MEAN_ANOMALY":88.8132,"EPHEMERIS_TYPE":0,"CLASSIFICATION_TYPE":"U","NORAD_CAT_ID":56488,"ELEMENT_SET_NO":999,"REV_AT_EPOCH":12331,"BSTAR":6.8562e-5,"MEAN_MOTION_DOT":7.25e-6,"MEAN_MOTION_DDOT":0},{"OBJECT_NAME":"STARLINK-5923","OBJECT_ID":"2023-064AT","EPOCH":"2025-07-30T12:34:46.446816","MEAN_MOTION":14.98320138,"ECCENTRICITY":0.0002998,"INCLINATION":70.001,"RA_OF_ASC_NODE":304.6411,"ARG_OF_PERICENTER":270.3286,"MEAN_ANOMALY":89.7529,"EPHEMERIS_TYPE":0,"CLASSIFICATION_TYPE":"U","NORAD_CAT_ID":56489,"ELEMENT_SET_NO":999,"REV_AT_EPOCH":12331,"BSTAR":-4.9582e-5,"MEAN_MOTION_DOT":-6.84e-6,"MEAN_MOTION_DDOT":0},{"OBJECT_NAME":"STARLINK-5873","OBJECT_ID":"2023-064AU","EPOCH":"2025-07-30T13:04:49.378944","MEAN_MOTION":14.9833163,"ECCENTRICITY":0.0003382,"INCLINATION":70.0002,"RA_OF_ASC_NODE":304.7123,"ARG_OF_PERICENTER":270.8826,"MEAN_ANOMALY":89.1946,"EPHEMERIS_TYPE":0,"CLASSIFICATION_TYPE":"U","NORAD_CAT_ID":56490,"ELEMENT_SET_NO":999,"REV_AT_EPOCH":12331,"BSTAR":0.00011476,"MEAN_MOTION_DOT":1.277e-5,"MEAN_MOTION_DDOT":0},{"OBJECT_NAME":"STARLINK-5842","OBJECT_ID":"2023-064AV","EPOCH":"2025-07-30T12:28:45.400224","MEAN_MOTION":14.98331495,"ECCENTRICITY":0.0003216,"INCLINATION":70.0004,"RA_OF_ASC_NODE":304.6268,"ARG_OF_PERICENTER":269.8895,"MEAN_ANOMALY":90.1895,"EPHEMERIS_TYPE":0,"CLASSIFICATION_TYPE":"U","NORAD_CAT_ID":56491,"ELEMENT_SET_NO":999,"REV_AT_EPOCH":12331,"BSTAR":6.4373e-5,"MEAN_MOTION_DOT":6.75e-6,"MEAN_MOTION_DDOT":0},{"OBJECT_NAME":"STARLINK-5846","OBJECT_ID":"2023-064AW","EPOCH":"2025-07-30T12:22:44.932512","MEAN_MOTION":14.9832944,"ECCENTRICITY":0.0003405,"INCLINATION":70.0001,"RA_OF_ASC_NODE":304.6122,"ARG_OF_PERICENTER":271.1883,"MEAN_ANOMALY":88.8886,"EPHEMERIS_TYPE":0,"CLASSIFICATION_TYPE":"U","NORAD_CAT_ID":56492,"ELEMENT_SET_NO":999,"REV_AT_EPOCH":12331,"BSTAR":1.7924e-6,"MEAN_MOTION_DOT":-7.2e-7,"MEAN_MOTION_DDOT":0}]
