STARLINK-5545           
1 56476U 23064AE  25211.55358918 -.00000023  00000+0  58606-5 0  9993
2 56476  70.0011 324.6137 0003272 269.8266  90.2518 14.98330099122824
STARLINK-5534           
1 56477U 23064AF  25211.52871122  .00001257  00000+0  11313-3 0  9999
2 56477  70.0006 324.5274 0003489 270.9625  89.1134 14.98326288122828
STARLINK-6041           
1 56478U 23064AG  25211.54106651  .00000266  00000+0  30133-4 0  9991
2 56478  70.0006 324.5712 0003351 268.1690  91.9085 14.98327397122823
STARLINK-6044           
1 56479U 23064AH  25211.58278205  .00000498  00000+0  49531-4 0  9990
2 56479  70.0007 324.3139 0002955 269.7320  90.3501 14.98329436122835
STARLINK-6214           
1 56480U 23064AJ  25211.52960824  .00007114  00000+0  39853-3 0  9998
2 56480  69.9971 309.4139 0001193 239.3486 120.7564 15.13820990123205
STARLINK-6222           
1 56481U 23064AK  25211.59112988  .00000742  00000+0  69943-4 0  9990
2 56481  70.0005 324.3434 0003280 270.3958  89.6826 14.98330456122836
STARLINK-6220           
1 56482U 23064AL  25211.53689103  .00000759  00000+0  71442-4 0  9998
2 56482  70.0007 324.5556 0003296 271.0434  89.0348 14.98329309122827
STARLINK-5868           
1 56483U 23064AM  25211.53271750  .00000227  00000+0  26805-4 0  9997
2 56483  70.0006 324.5377 0003379 268.3533  91.7239 14.98328104122820
STARLINK-6221           
1 56484U 23064AN  25210.72742184  .00000458  00000+0  46146-4 0  9998
2 56484  70.0009 326.5466 0003046 269.2561  90.8249 14.98331771122349
STARLINK-6210           
1 56485U 23064AP  25211.57860775  .00000320  00000+0  34574-4 0  9990
2 56485  70.0012 324.2968 0002770 268.8307  91.2535 14.98330491122837
STARLINK-6201           
1 56486U 23064AQ  25211.58695609  .00000406  00000+0  41821-4 0  9992
2 56486  70.0007 324.3286 0003313 268.6939  91.3840 14.98327505122831
STARLINK-6196           
1 56487U 23064AR  25211.56168790  .00000823  00000+0  76754-4 0  9993
2 56487  70.0010 304.3738 0003264 270.2678  89.8107 14.98329910123325
STARLINK-6204           
1 56488U 23064AS  25211.53667303  .00000725  00000+0  68562-4 0  9994
2 56488  69.9999 304.6838 0003018 271.2681  88.8132 14.98342442123316
STARLINK-5923           
1 56489U 23064AT  25211.52414869 -.00000684  00000+0 -49582-4 0  9998
2 56489  70.0010 304.6411 0002998 270.3286  89.7529 14.98320138123316
STARLINK-5873           
1 56490U 23064AU  25211.54501596  .00001277  00000+0  11476-3 0  9993
2 56490  70.0002 304.7123 0003382 270.8826  89.1946 14.98331630123319
STARLINK-5842           
1 56491U 23064AV  25211.51996991  .00000675  00000+0  64373-4 0  9994
2 56491  70.0004 304.6268 0003216 269.8895  90.1895 14.98331495123315
STARLINK-5846           
1 56492U 23064AW  25211.51579783 -.00000072  00000+0  17924-5 0  9994
2 56492  70.0001 304.6122 0003405 271.1883  88.8886 14.98329440123316
